#dP2024  2  7  6  0  0.00000000      96 __u+U IGS20 EXT  IAC
## 2300 280800.00000000   900.00000000 60347 0.2500000000000
+  120   C06C07C08C09C10C11C12C13C14C16C19C20C21C22C23C24C25
+        C26C27C28C29C30C32C33C34C35C36C37C38C39C40C41C42C43
+        C44C45C46E02E03E04E05E07E08E09E10E11E12E13E14E15E18
+        E19E21E24E25E26E27E30E31E33E34E36G01G02G03G04G05G06
+        G07G08G09G10G11G12G13G14G15G16G17G18G19G20G21G22G23
+        G24G25G26G27G28G29G30G31G32J02J03J04R01R02R03R04R05
+        R07R08R09R11R12R13R14R15R16R17R18R19R20R21R22R24R25
+        R26  0  0  0  0  0  0  0  0  0  0  0  0  0  0  0  0
++         9 10  9  9  8 10  8  9 10  9  9  8 10  8  9  9  8
++         9  8  8  9  8  8  7  8  9  8  7 10  9 11 10  8  9
++         8  7  9  7  8  7  8  7  8  7  8  8  7  8  7  8  7
++         7  7  7  7  7  7  7  7  7  7  7  7  7  7  9  7  8
++         7  7  8  7  8  7  7  7  7  8  7  7  8  7  7  7  7
++         7  7  7  7  8  8  7  7  7 10  8  0  7  9  9  7  8
++         7  8  9  9  7  8  7  7  8  9  9 10  8  8  8  7  8
++         8  0  0  0  0  0  0  0  0  0  0  0  0  0  0  0  0
%c M  cc GPS ccc cccc cccc cccc cccc ccccc ccccc ccccc ccccc
%c cc cc ccc ccc cccc cccc cccc cccc ccccc ccccc ccccc ccccc
%f  0.0000000  0.000000000  0.00000000000  0.000000000000000
%f  0.0000000  0.000000000  0.00000000000  0.000000000000000
%i    0    0    0    0      0      0      0      0         0
%i    0    0    0    0      0      0      0      0         0
/* IAC                                ULTRA-RAPID PREDICTION
/* S/V CLOCKS ARE ALIGNED TO GNSS TIME                      
/* G:C1WC2W R:C1PC2P E:C1XC5X C:C2IC6I J:C1CC2S             
/* PCV:IGS20_2290 OL/AL:FES2004  NONE     YN ORB:CoN CLK:CoN
*  2024 02 07 22  0  0.00000000
PC06  -2046.711722  34646.129912  24186.487124     95.771297
PC07 -13413.527063  26861.036560 -29566.470043   -765.072442
PC08 -16837.053325  37516.978159   8767.797436     55.265859
PC09   4051.653215  38835.088383  17117.123130   -459.500309
PC10  -5692.093066  27511.678794 -31182.514938     94.260830
PC11 -21035.831103  -5135.064223 -17534.595929    398.929817
PC12 -20029.747855 -19397.502767  -1033.484053    775.452141
PC13  -9597.909460  37510.008917  16499.572886    415.301838
PC14 -27171.894585   4360.199618  -4790.694761    140.250572
PC16  -3256.764311  33440.292282  25941.253152   -326.634401
PC19  25504.915944 -10364.692164  -4465.908519   -929.041692
PC20  25173.317333   1274.334714  11959.575901   -141.004938
PC21  -9512.425805 -13229.372413 -22639.756008   -962.585703
PC22  11159.297140 -16730.569441 -19335.948465   -118.132447
PC23  -9082.556132  26168.605731   3349.741012   -782.844178
PC24 -14716.780667  -7810.836909  22365.647022    863.645379
PC25 -16331.967690  13873.940937  17848.111020    320.728613
PC26  -4945.399775 -23661.642456  13951.042121   -245.992609
PC27  15157.085044  22246.353462  -7403.399103    267.979935
PC28    445.986989  19777.946707 -19677.699881    203.730109
PC29  17141.130466  -4787.195229  21491.886241    238.762543
PC30  23208.886941  12649.976645   8982.206138    -22.643723
PC32   9483.635910  13236.642322  22679.707811   -564.316959
PC33 -25481.917526  10514.052548   4408.597304   -947.181886
PC34 -23260.271237 -11398.519689 -10359.566144    364.410643
PC35  -1021.170841 -19735.625215  19675.769171    438.901495
PC36  16744.840772 -12982.403334 -18155.250096    -23.174759
PC37   4123.410285  23990.364522 -13620.759409   -934.937470
PC38 -20314.306897  36858.319518    324.396427    135.402746
PC39  -7188.222565  28716.228179  30161.476303     -7.035803
PC40 -19635.808088  20121.433909 -31505.604054    -55.516495
PC41 -11930.128911  16775.561945  18904.095030   -887.953419
PC42 -24471.720401  -2303.009285 -13191.758321   -456.668105
PC43 -17798.677314   4029.834407 -21113.643446     59.537050
PC44 -15844.097051 -21684.693978   7503.572727    377.711295
PC45   8994.843229 -26246.274014  -3135.334434    -68.652748
PC46  14966.320317   6692.231844 -22593.406777   -122.023156
PE02 -24557.992699   9897.963677  13198.836857    101.555396
PE03 -27292.564440   -202.311769  11464.828738    -92.329215
PE04  12826.107909 -13010.226256 -23282.076420   -322.045443
PE05 -25636.664978 -13104.633027  -6861.431538   4717.894158
PE07   8534.467853  18451.554665  21518.734391   -102.587831
PE08 -13485.301378  12527.073809  23184.749428   -220.357032
PE09  -8466.876922 -18321.991625 -21651.814417   -327.985900
PE10    897.145092 -27573.372955  10725.763451   -600.216828
PE11  -6074.782503 -28956.214184    450.561267   3258.340156
PE12   7146.562142 -22224.416457  18186.802297   -896.680884
PE13   5683.096134  29034.512029  -1137.497091    -20.119796
PE14 -28978.725376 -11774.975340   1412.004434     33.008881
PE15  -7378.759755  21831.375105 -18574.014534    -84.551638
PE18  19313.192747  14086.203637  -7443.840802    301.062833
PE19  27947.392718   2032.202761  -9539.837174   -658.530321
PE21  16235.797795   7318.232427 -23653.175876   -577.876277
PE24   2390.593539 -21260.035825  20445.785738   -585.790312
PE25 -15925.638731  -7676.306616  23735.438540      0.579415
PE26  15497.533018  18570.187404  17076.168187    362.244395
PE27  -1906.675048  21056.102534 -20716.342811   -269.086775
PE30 -18918.754536  22109.084499  -5389.690649   -888.683681
PE31  18733.324294 -22231.696674   5592.978196    -15.496464
PE33  16052.351415  -1285.277748  24843.685340      7.238062
PE34 -15928.697307   1962.531374 -24870.087517    -93.385145
PE36 -15201.160227 -19151.346073 -16664.919883   -182.809927
PG01  13147.611064  -6644.158690  21734.077629    168.682065
PG02  16096.367074   1313.553903  21628.268445   -488.932529
PG03  21668.371822  -9475.159094  11830.050181    178.635054
PG04  24235.139391    165.846031 -11006.599413    286.085554
PG05 -17709.720118  -1367.001378 -19945.956365   -160.950187
PG06  -5810.807348 -25854.707308    -82.063754    415.806506
PG07   7366.482180 -19119.868217 -16148.224236    -56.538610
PG08  26159.681938   5254.920260   2346.013346   -165.930050
PG09  15183.464653 -10008.798664 -19460.877272     84.664713
PG10  -5838.747403  20277.506896  16130.881292    -72.428306
PG11 -11834.509062 -20930.427149 -11310.473757   -568.084985
PG12 -22346.253787   7712.673723  11752.910474   -475.756476
PG13 -22223.654579 -13979.469152  -4940.523076    623.435970
PG14   9639.876183 -21042.485907  12882.271054    319.793734
PG15 -26459.566051  -2620.221974   1609.168199    125.370941
PG16  13513.136460   8517.673850 -21614.800105   -367.549694
PG17   1771.471756 -15380.073131  21993.610878    717.686741
PG18  -6666.969721  20117.957602 -15877.169075   -550.548633
PG19  -8844.695757 -17214.117085  18161.754866    437.532302
PG20  -8728.548195 -13460.257093 -21130.647838    388.353185
PG21  17043.490034   7747.535446  19680.097540    135.733283
PG22   3209.995781 -19104.599181  18726.485850     34.945519
PG23 -15744.352348  20627.509821   5193.387221    151.440862
PG24 -16814.852690  -3797.927070  19894.677569   -427.947185
PG25 -20036.782957  16969.179457   2507.447523    487.886672
PG26   5185.830541  16561.668821 -20161.722626    192.571071
PG27  21368.351359  13197.007624  -9558.597456     -2.013558
PG28   5050.347618  25930.549070   2746.905460   -123.593665
PG29 -17147.929936   7261.953779 -19025.904882   -607.388329
PG30     27.395035 -25213.274520  -7777.419422   -435.492755
PG31  10083.122440  23360.878476  -7056.761096   -227.690949
PG32   3079.426600  16195.717445  21064.392078   -610.345724
PJ02 -36349.037935  21126.298642   1017.430660     -1.785668
PJ03 -19748.287103  24195.524010 -23671.637111     -0.213756
PJ04      0.000000      0.000000      0.000000     50.929937
PR01 -24072.914182   5872.967627   6084.730288     76.586943
PR02 -11739.529233  10418.440535  20132.659600    -22.450165
PR03   7448.025808   9850.043137  22379.342903     94.097390
PR04  21951.982365   3901.209610  12440.065712    222.466468
PR05  24844.348511  -4020.719513  -4225.196545    126.560707
PR07  -8271.505511  -9631.884202 -22070.267355     75.322802
PR08 -22115.307039  -3631.105743 -12084.287378    -74.316072
PR09  10200.547639 -23320.720604   -770.914149    168.756304
PR11  -8680.129232  -7253.684494  22865.747417     35.075097
PR12 -14490.945863  12345.765335  16985.438894     36.504176
PR13 -11486.691041  22548.367131   3161.978237    -44.123408
PR14   -797.319067  20349.124560 -15367.497745     26.036615
PR15   9462.371203   5894.810771 -22931.722656     82.411175
PR16  14300.292450 -12206.164859 -17220.947950     23.107899
PR17  11713.433748  21723.927436  -6368.460351     59.358290
PR18  16780.406407  16355.630581  10166.358330    126.245257
PR19  13935.165346   4459.900347  20898.802424   -264.946551
PR20   1539.514720 -14735.941368  20761.829499   -107.929505
PR21 -11730.558852 -21828.040225   6095.359928    -75.189497
PR22 -16508.066258 -16009.807111 -10990.482238    107.012659
PR24   -810.878597  15458.865588 -20251.273755    -42.996655
PR25 -10801.904921 -22264.445358   6229.316290     90.358535
PR26 -21637.347209  -3928.769176 -12919.105236   -199.487222
EOF
